      2.10          N: GNSS NAV DATA                        RINEX VERSION / TYPE
fic2rin                                 06/14/2020 00:17:34 PGM / RUN BY / DATE
                                                            END OF HEADER
14 20  6 13 14  0  0.0-6.169546395540e-06 2.728484105319e-12 0.000000000000e+00
    5.400000000000e+01-1.012500000000e+01 4.448399579412e-09 1.096403412780e+00
   -5.494803190231e-07 1.150820415933e-02 9.734183549881e-06 5.153657087326e+03
    5.688000000000e+05-2.048909664154e-07-1.294496997750e+00-3.725290298462e-08
    9.600964332873e-01 1.909375000000e+02-1.913514358811e+00-8.091051310478e-09
    3.107272287506e-11 1.000000000000e+00 2.109000000000e+03 0.000000000000e+00
    2.400000000000e+00 0.000000000000e+00-9.778887033463e-09 5.400000000000e+01
    5.616000000000e+05 4.000000000000e+00
30 20  6 13 14  0  0.0-2.408376894891e-04-7.958078640513e-12 0.000000000000e+00
    1.020000000000e+02 4.296875000000e+01 5.196287874819e-09-1.615285775113e+00
    1.931563019753e-06 4.693167633377e-03 7.063150405884e-06 5.153632680893e+03
    5.688000000000e+05 6.332993507385e-08-2.940936267286e-01-5.401670932770e-08
    9.386008987349e-01 2.290937500000e+02-2.852519586159e+00-8.355705191517e-09
    3.035840740667e-10 1.000000000000e+00 2.109000000000e+03 0.000000000000e+00
    3.400000000000e+00 0.000000000000e+00 3.725290298462e-09 1.020000000000e+02
    5.616000000000e+05 4.000000000000e+00
24 20  6 13 14  0  0.0-1.426413655281e-05-4.547473508865e-13 0.000000000000e+00
    8.200000000000e+01 4.290625000000e+01 5.262004897911e-09-5.930062884750e-01
    2.428889274597e-06 9.689710219391e-03 7.484108209610e-06 5.153650121689e+03
    5.688000000000e+05 8.381903171539e-08-3.889099219907e-01 1.247972249985e-07
    9.365159332591e-01 2.237812500000e+02 6.675356565109e-01-8.476781663410e-09
    2.028655930234e-10 1.000000000000e+00 2.109000000000e+03 0.000000000000e+00
    2.400000000000e+00 0.000000000000e+00 2.793967723846e-09 8.200000000000e+01
    5.616000000000e+05 4.000000000000e+00
15 20  6 13 14  0  0.0-2.245358191431e-04 2.614797267597e-12 0.000000000000e+00
    5.600000000000e+01-3.137500000000e+01 5.205573975908e-09 4.738397788373e-01
   -1.521781086922e-06 1.232288056053e-02 8.877366781235e-06 5.153698047638e+03
    5.688000000000e+05-1.844018697739e-07-1.480548527200e+00 1.676380634308e-07
    9.278991043908e-01 1.933125000000e+02 8.831788661162e-01-8.457137988029e-09
   -2.928693420408e-11 1.000000000000e+00 2.109000000000e+03 0.000000000000e+00
    2.400000000000e+00 0.000000000000e+00-1.071020960808e-08 5.600000000000e+01
    5.616000000000e+05 4.000000000000e+00
11 20  6 13 14  0  0.0-2.498850226402e-04 1.068656274583e-11 0.000000000000e+00
    5.700000000000e+01 3.550000000000e+01 5.653092616856e-09-1.339065358796e+00
    1.914799213409e-06 1.601763477083e-02 7.186084985733e-06 5.153719638824e+03
    5.688000000000e+05-3.408640623093e-07 2.345893634880e+00 9.313225746155e-08
    9.128981244312e-01 2.167187500000e+02 1.992164335515e+00-8.861440543139e-09
    8.571785620706e-11 1.000000000000e+00 2.109000000000e+03 0.000000000000e+00
    2.400000000000e+00 0.000000000000e+00-1.257285475731e-08 5.700000000000e+01
    5.616000000000e+05 4.000000000000e+00
21 20  6 13 14  0  0.0 1.108041033149e-05 4.774847184308e-12 0.000000000000e+00
    5.700000000000e+01 1.890625000000e+01 4.486258299237e-09-3.021295606712e+00
    1.026317477226e-06 2.385563810822e-02 5.897134542465e-06 5.155136022568e+03
    5.688000000000e+05 2.644956111908e-07 2.746992858022e+00 2.533197402954e-07
    9.535465248002e-01 2.575937500000e+02-1.321554034819e+00-7.777466819854e-09
    1.039329006511e-10 1.000000000000e+00 2.109000000000e+03 0.000000000000e+00
    2.400000000000e+00 0.000000000000e+00-1.024454832077e-08 5.700000000000e+01
    5.616000000000e+05 4.000000000000e+00
12 20  6 13 14  0  0.0 1.065479591489e-04-4.433786671143e-12 0.000000000000e+00
    9.700000000000e+01 7.781250000000e+00 4.425898642158e-09-2.272928897229e+00
    4.414469003677e-07 8.042360073887e-03 5.802139639854e-06 5.153676380157e+03
    5.688000000000e+05 1.415610313416e-07 7.895147900029e-01 7.450580596924e-09
    9.782028884310e-01 2.768125000000e+02 1.160215785290e+00-7.926758752748e-09
   -9.357532635937e-11 1.000000000000e+00 2.109000000000e+03 0.000000000000e+00
    3.400000000000e+00 0.000000000000e+00-1.210719347000e-08 9.700000000000e+01
    5.616000000000e+05 4.000000000000e+00
26 20  6 13 14  0  0.0 2.246377989650e-04 7.048583938740e-12 0.000000000000e+00
    1.050000000000e+02 8.875000000000e+00 5.081997399876e-09-3.113589749282e+00
    4.693865776062e-07 4.745906568132e-03 5.846843123436e-06 5.153630006790e+03
    5.688000000000e+05-1.043081283569e-07 6.847647177591e-01-7.450580596924e-09
    9.466562099052e-01 2.610000000000e+02 2.256200022301e-01-8.245343451651e-09
   -1.803646557690e-10 1.000000000000e+00 2.109000000000e+03 0.000000000000e+00
    2.400000000000e+00 0.000000000000e+00 6.984919309616e-09 1.050000000000e+02
    5.616000000000e+05 4.000000000000e+00
28 20  6 13 14  0  0.0 7.090019062161e-04-3.296918293927e-12 0.000000000000e+00
    1.030000000000e+02 3.156250000000e+00 4.313036798152e-09 2.056734501053e+00
    2.235174179077e-08 1.839497906622e-02 6.156042218208e-06 5.153663543701e+03
    5.688000000000e+05 3.110617399216e-07 8.120948003567e-01-1.080334186554e-07
    9.774407680913e-01 2.657187500000e+02-1.405021615807e+00-7.721393055585e-09
   -3.239420649158e-10 1.000000000000e+00 2.109000000000e+03 0.000000000000e+00
    4.850000000000e+00 0.000000000000e+00-1.117587089539e-08 1.030000000000e+02
    5.616000000000e+05 4.000000000000e+00
18 20  6 13 14  0  0.0 2.189688384533e-04 1.068656274583e-11 0.000000000000e+00
    2.230000000000e+02 6.531250000000e+00 4.366253300547e-09-2.331387282153e-01
    2.682209014893e-07 5.959152476862e-04 6.338581442833e-06 5.153724275589e+03
    5.688000000000e+05-5.587935447693e-09 2.838482612160e+00-3.352761268616e-08
    9.642326586063e-01 2.622500000000e+02 2.557089476972e+00-8.073907739237e-09
    4.785913638228e-11 1.000000000000e+00 2.109000000000e+03 0.000000000000e+00
    3.400000000000e+00 0.000000000000e+00-7.916241884232e-09 2.230000000000e+02
    5.616000000000e+05 4.000000000000e+00
 4 20  6 13 14  0  0.0-1.019537448883e-04-4.774847184308e-12 0.000000000000e+00
    2.000000000000e+02-1.228125000000e+01 4.333394789001e-09 3.089181568241e-01
   -6.239861249924e-07 7.752510719001e-04 1.026503741741e-05 5.153675968170e+03
    5.688000000000e+05 1.676380634308e-08-1.342506930631e+00 8.381903171539e-08
    9.596337854448e-01 1.810312500000e+02-2.608798042727e+00-7.885328455581e-09
    1.350056235261e-10 1.000000000000e+00 2.109000000000e+03 0.000000000000e+00
    2.400000000000e+00 0.000000000000e+00-4.190951585770e-09 2.000000000000e+02
    5.616600000000e+05 4.000000000000e+00
 5 20  6 13 13 59 44.0-1.456961035728e-05-7.958078640513e-13 0.000000000000e+00
    3.200000000000e+01-5.096875000000e+01 4.773055959796e-09 2.105706437160e+00
   -2.743676304817e-06 5.918995826505e-03 5.712732672691e-06 5.153678047180e+03
    5.687840000000e+05-2.235174179077e-08-2.453819806141e+00-6.891787052155e-08
    9.528415577441e-01 2.681250000000e+02 8.034415433652e-01-8.281059225070e-09
   -6.107397254753e-11 1.000000000000e+00 2.109000000000e+03 0.000000000000e+00
    2.400000000000e+00 0.000000000000e+00-1.117587089539e-08 3.200000000000e+01
    5.659500000000e+05 4.000000000000e+00
30 20  6 13 13 59 44.0-2.408381551504e-04-7.958078640513e-12 0.000000000000e+00
    8.000000000000e+00 4.296875000000e+01 5.196287874819e-09-1.617620090587e+00
    1.931563019753e-06 4.693162976764e-03 7.063150405884e-06 5.153632680893e+03
    5.687840000000e+05 6.332993507385e-08-2.940935023806e-01-5.401670932770e-08
    9.386008841057e-01 2.290937500000e+02-2.852519028787e+00-8.355705191517e-09
    3.039412318009e-10 1.000000000000e+00 2.109000000000e+03 0.000000000000e+00
    2.400000000000e+00 0.000000000000e+00 3.725290298462e-09 8.000000000000e+00
    5.676000000000e+05 4.000000000000e+00
 5 20  6 13 15 59 44.0-1.457473263144e-05-7.958078640513e-13 0.000000000000e+00
    3.300000000000e+01-5.590625000000e+01 4.791271004240e-09-3.127242288891e+00
   -2.883374691010e-06 5.919817835093e-03 5.789101123810e-06 5.153676404953e+03
    5.759840000000e+05 4.656612873077e-08-2.453878915346e+00 0.000000000000e+00
    9.528414494881e-01 2.637500000000e+02 8.033853482930e-01-8.190341160585e-09
   -8.071764792831e-11 1.000000000000e+00 2.109000000000e+03 0.000000000000e+00
    2.400000000000e+00 0.000000000000e+00-1.117587089539e-08 3.300000000000e+01
    5.688000000000e+05 4.000000000000e+00
30 20  6 13 15 59 44.0-2.408954314888e-04-7.958078640513e-12 0.000000000000e+00
    3.000000000000e+01 4.750000000000e+01 5.158071997260e-09-5.675542085909e-01
    2.561137080193e-06 4.693041439168e-03 6.863847374916e-06 5.153631423950e+03
    5.759840000000e+05 1.098960638046e-07-2.941535259093e-01 3.166496753693e-08
    9.386026981241e-01 2.323125000000e+02-2.852373782966e+00-8.424636634217e-09
    2.578678840896e-10 1.000000000000e+00 2.109000000000e+03 0.000000000000e+00
    2.400000000000e+00 0.000000000000e+00 3.725290298462e-09 3.000000000000e+01
    5.688000000000e+05 4.000000000000e+00
 2 20  6 13 16  0  0.0-4.715416580439e-04-6.025402399246e-12 0.000000000000e+00
    9.000000000000e+00 1.443750000000e+01 4.751626495745e-09 4.715451611087e-01
    7.804483175278e-07 1.970094908029e-02 6.712973117828e-06 5.153715116501e+03
    5.760000000000e+05-2.365559339523e-07 2.744825214268e+00-9.126961231232e-08
    9.595747289048e-01 2.560312500000e+02-1.624134420906e+00-8.601429712644e-09
    3.678724662220e-11 1.000000000000e+00 2.109000000000e+03 0.000000000000e+00
    2.400000000000e+00 0.000000000000e+00-1.769512891769e-08 9.000000000000e+00
    5.688000000000e+05 4.000000000000e+00
